PROMETHEUS 2-3          
1 41855U 16067H   23341.86115091  .00009059  00000+0  56038-3 0  9994
2 41855  98.0766 139.9669 0012987   2.9833 357.1470 15.10011652386653
DIDO-2                  
1 42000U 17008BE  23341.38073950  .00030156  00000+0  53444-3 0  9997
2 42000  97.1783  35.5666 0005739 114.9787 245.2061 15.50197395378660
AALTO-1                 
1 42775U 17036L   23342.06977263  .00022347  00000+0  47676-3 0  9996
2 42775  97.1336   7.9045 0007398 178.5366 181.5907 15.44869218359279
URSA MAIOR              
1 42776U 17036M   23341.30911762  .00030535  00000+0  56670-3 0  9997
2 42776  97.1343   9.2054 0006735 174.8794 185.2528 15.48870440359274
DIAMOND RED             
1 42783U 17036U   23341.31140297  .00043372  00000+0  63140-3 0  9996
2 42783  97.1272  13.5606 0004768 169.5123 190.6233 15.55609757359558
PEGASUS                 
1 42784U 17036V   23342.09870097  .00221811  00000+0  10553-2 0  9996
2 42784  97.1165  20.1173 0003501 139.7358 220.4171 15.82293641360079
DIAMOND GREEN           
1 42785U 17036W   23342.06565022  .00056601  00000+0  72212-3 0  9997
2 42785  97.1244  14.9679 0005001 160.4772 199.6677 15.59103053359705
DIAMOND BLUE            
1 42786U 17036X   23341.36908202  .00048566  00000+0  66978-3 0  9994
2 42786  97.1275  13.9803 0005210 161.5671 198.5774 15.57051568359651
CICERO 6                
1 42793U 17036AE  23341.06875435  .00037125  00000+0  63627-3 0  9997
2 42793  97.1257  12.7217 0005086 166.7316 193.4071 15.51109175359576
CORVUS BC2              
1 42846U 17042X   23342.52138616  .00001543  00000+0  14257-3 0  9998
2 42846  97.3726 173.5419 0008702 354.3365   5.7757 14.95922102348771
CORVUS BC1              
1 42847U 17042Y   23342.09945119  .00002588  00000+0  23512-3 0  9999
2 42847  97.3732 173.5184 0008341 358.2838   1.8354 14.96047005348721
MIRATA                  
1 43015U 17073C   23342.19433837  .00010746  00000+0  60758-3 0  9999
2 43015  97.6091 225.3054 0192170 191.7424 167.9287 14.98860606327499
MAKERSAT 0              
1 43016U 17073D   23342.22260215  .00008040  00000+0  50713-3 0  9996
2 43016  97.6064 222.0554 0211816 205.3379 153.7336 14.92621233327223
CORVUS BC3              
1 43118U 18004H   23342.15934781  .00032443  00000+0  56593-3 0  9998
2 43118  97.3106  57.4093 0004690 221.7248 138.3647 15.50640533328870
GOMX-4B                 
1 43196U 18015E   23342.41214616  .00019520  00000+0  41484-3 0  9997
2 43196  97.5933 139.6870 0011099 301.4849  58.5314 15.44984093325760
GOMX-4A                 
1 43197U 18015F   23342.43018317  .00024062  00000+0  43473-3 0  9997
2 43197  97.5904 142.8511 0009882 292.7743  67.2463 15.49663676325981
CUBEBEL-1 (BSUSAT-1)    
1 43666U 18083E   23342.43713202  .00068673  00000+0  87812-3 0  9999
2 43666  97.3566  16.9201 0005148 184.0406 176.0809 15.58994485284129
CICERO 10               
1 43690U 18088A   23342.42380683  .00026477  00000+0  52788-3 0  9993
2 43690  85.0250 313.9074 0004830 322.5267  37.5651 15.46721807282306
PROXIMA I               
1 43694U 18088E   23341.86888682  .00042081  00000+0  67723-3 0  9990
2 43694  85.0168 309.0433 0004513 237.6127 122.4695 15.52787319282581
PROXIMA II              
1 43696U 18088G   23342.48361867  .00037377  00000+0  60725-3 0  9999
2 43696  85.0168 308.7086 0004822 235.6006 124.4797 15.52533494282678
SIRION PATHFINDER-2     
1 43759U 18099B   23341.49479082  .00002468  00000+0  20113-3 0  9990
2 43759  97.5473  38.1737 0011991 229.3205 130.6978 15.00326169273591
CORVUS BC4              
1 43767U 18099K   23342.11900885  .00003288  00000+0  26986-3 0  9994
2 43767  97.5499  36.4804 0007441 264.1232  95.9144 14.99870507273580
MOVE-II                 
1 43780U 18099Y   23342.13954228  .00008789  00000+0  56728-3 0  9999
2 43780  97.5508  42.7977 0006904 281.1441  78.9011 15.08482558273918
SPACEBEE-7              
1 43816U 18099BL  23341.12030408  .00008778  00000+0  60373-3 0  9991
2 43816  97.5784  42.7554 0010210 226.3982 133.6399 15.06105445273307
SPACEBEE-5              
1 43817U 18099BM  23342.16183773  .00082436  00000+0  19492-2 0  9999
2 43817  97.5697  56.7706 0002992 220.7896 139.3127 15.41510429274231
SPACEBEE-6              
1 43818U 18099BN  23341.14786187  .00015293  00000+0  88866-3 0  9994
2 43818  97.5696  45.8427 0009740 238.5152 121.5127 15.12148978273641
SHIELDS 1               
1 43850U 18104B   23341.25793938  .00007511  00000+0  23948-3 0  9995
2 43850  85.0270  53.4365 0014104  77.1036 283.1785 15.32227720276576
STF-1                   
1 43852U 18104D   23342.23115566  .00078837  00000+0  76408-3 0  9999
2 43852  85.0153  46.5711 0005457  62.9040 297.2782 15.66088147277382
ZACUBE-2                
1 43907U 18111AH  23342.48427867  .00044091  00000+0  63005-3 0  9999
2 43907  97.1040 219.1988 0009014 308.3074  51.7370 15.56078359276099
LUME 1                  
1 43908U 18111AJ  23341.21834702  .00101536  00000+0  82155-3 0  9995
2 43908  97.1038 223.8059 0003725 300.5164  59.5731 15.70488406276287
SONATE                  
1 44400U 19038Q   23341.50408800  .00010422  00000+0  40388-3 0  9995
2 44400  97.7017 323.4641 0020996  68.2432 292.1037 15.26143198244621
LUCKY-7                 
1 44406U 19038W   23341.49935729  .00014722  00000+0  49105-3 0  9997
2 44406  97.6967 325.6290 0018963  61.4182 298.8963 15.31009041244773
BEESAT 9                
1 44412U 19038AC  23341.49722254  .00033751  00000+0  75470-3 0  9998
2 44412  97.6844 329.4396 0014894  54.2579 306.0051 15.43309823244754
JAISAT-1                
1 44419U 19038F   23341.55296687  .00035844  00000+0  80067-3 0  9991
2 44419  97.6840 330.6182 0014290  51.7092 308.5438 15.43337143245142
DUCHIFAT-3              
1 44854U 19089C   23342.48096902  .00007122  00000+0  43172-3 0  9995
2 44854  36.9587 126.8256 0008301 319.3666  40.6459 15.10186907219155
M2 PATHFINDER           
1 45727U 20037E   23342.45636674  .00001715  00000+0  16006-3 0  9991
2 45727  97.7636 155.2866 0012868  48.1258 312.1058 14.95457825187276
NETSAT-4                
1 46504U 20068U   23342.44858513  .00005076  00000+0  31043-3 0  9998
2 46504  97.7831 290.4291 0008722 305.3824  54.6589 15.10678868175186
NETSAT-3                
1 46505U 20068V   23342.44356112  .00004431  00000+0  27407-3 0  9990
2 46505  97.7809 290.1318 0008188 316.0368  44.0209 15.10342451175185
NETSAT-1                
1 46506U 20068W   23342.07924269  .00005368  00000+0  33826-3 0  9996
2 46506  97.7823 289.5382 0007398 329.6239  30.4560 15.09564173175111
NETSAT-2                
1 46507U 20068X   23342.38870157  .00005292  00000+0  32430-3 0  9993
2 46507  97.7824 290.0631 0006706 339.3228  20.7729 15.10595094175123
WILDTRACKCUBE-SIMBA     
1 47941U 21022K   23342.47133708  .00006640  00000+0  34885-3 0  9995
2 47941  97.4791 236.5630 0019507  92.0294 268.3172 15.15863360149378
BEESAT-6                
1 47957U 21022AB  23341.23880471  .00028159  00000+0  95829-3 0  9995
2 47957  97.4744 239.6400 0016337  80.7344 279.5743 15.30258131149289
SMOG-1                  
1 47964U 21022AJ  23342.46788763  .00024799  00000+0  80313-3 0  9998
2 47964  97.4820 243.5175 0014750  64.5071 295.7694 15.31909332148640
BCCSAT-1                
1 48041U 21022AK  23341.26415298  .00020444  00000+0  75559-3 0  9991
2 48041  97.4807 240.4323 0013035  70.6271 289.6376 15.27671296148311
BEESAT-5                
1 48083U 21022AM  23341.24991794  .00030650  00000+0  96281-3 0  9990
2 48083  97.4603 240.1203 0015551  78.3947 281.9039 15.32829889148472
BEESAT-7                
1 48084U 21022AN  23340.96430165  .00031806  00000+0  10615-2 0  9999
2 48084  97.4741 239.6541 0015484  79.0164 281.2818 15.30877735147982
BEESAT-8                
1 48085U 21022AP  23341.23281679  .00010948  00000+0  48832-3 0  9992
2 48085  97.4844 238.0284 0017916  87.8691 272.4596 15.21427027148440
LEDSAT                  
1 49069U 21073D   23342.17964119  .00007516  00000+0  36790-3 0  9999
2 49069  97.4646  50.3723 0020857 234.6175 125.3111 15.18282532127265
